CCSDS_OMM_VERS = 2.0
CREATION_DATE  = 
ORIGINATOR     = 

OBJECT_NAME    = DELTA 2 R/B(1)
OBJECT_ID      = 1990-008B
CENTER_NAME    = EARTH
REF_FRAME      = TEME
TIME_SYSTEM    = UTC
MEAN_ELEMENT_THEORY = SGP/SGP4

EPOCH          = 2025-12-24T05:56:45.928320
MEAN_MOTION    = 15.46151182
ECCENTRICITY   = .01103635
INCLINATION    = 35.6078
RA_OF_ASC_NODE = 306.1695
ARG_OF_PERICENTER = 282.8208
MEAN_ANOMALY   = 76.0214

EPHEMERIS_TYPE = 0
CLASSIFICATION_TYPE = U
NORAD_CAT_ID   = 20453
ELEMENT_SET_NO = 999
REV_AT_EPOCH   = 91441
BSTAR          = .79227364E-3
MEAN_MOTION_DOT = .51132E-3
MEAN_MOTION_DDOT = 0

CCSDS_OMM_VERS = 2.0
CREATION_DATE  = 
ORIGINATOR     = 

OBJECT_NAME    = COSMOS 2058
OBJECT_ID      = 1990-010A
CENTER_NAME    = EARTH
REF_FRAME      = TEME
TIME_SYSTEM    = UTC
MEAN_ELEMENT_THEORY = SGP/SGP4

EPOCH          = 2025-12-24T02:03:21.717792
MEAN_MOTION    = 15.10578570
ECCENTRICITY   = .000937
INCLINATION    = 82.4708
RA_OF_ASC_NODE = 121.8713
ARG_OF_PERICENTER = 229.1662
MEAN_ANOMALY   = 130.8756

EPHEMERIS_TYPE = 0
CLASSIFICATION_TYPE = U
NORAD_CAT_ID   = 20465
ELEMENT_SET_NO = 999
REV_AT_EPOCH   = 93082
BSTAR          = .31702405E-3
MEAN_MOTION_DOT = .5264E-4
MEAN_MOTION_DDOT = 0

CCSDS_OMM_VERS = 2.0
CREATION_DATE  = 
ORIGINATOR     = 

OBJECT_NAME    = SL-14 R/B
OBJECT_ID      = 1990-010B
CENTER_NAME    = EARTH
REF_FRAME      = TEME
TIME_SYSTEM    = UTC
MEAN_ELEMENT_THEORY = SGP/SGP4

EPOCH          = 2025-12-24T05:05:26.647872
MEAN_MOTION    = 14.83481561
ECCENTRICITY   = .00196248
INCLINATION    = 82.5023
RA_OF_ASC_NODE = 338.2717
ARG_OF_PERICENTER = 184.0181
MEAN_ANOMALY   = 176.0880

EPHEMERIS_TYPE = 0
CLASSIFICATION_TYPE = U
NORAD_CAT_ID   = 20466
ELEMENT_SET_NO = 999
REV_AT_EPOCH   = 91729
BSTAR          = .54544799E-4
MEAN_MOTION_DOT = .473E-5
MEAN_MOTION_DDOT = 0

CCSDS_OMM_VERS = 2.0
CREATION_DATE  = 
ORIGINATOR     = 

OBJECT_NAME    = SL-14 R/B
OBJECT_ID      = 1990-018B
CENTER_NAME    = EARTH
REF_FRAME      = TEME
TIME_SYSTEM    = UTC
MEAN_ELEMENT_THEORY = SGP/SGP4

EPOCH          = 2025-12-24T05:23:45.152160
MEAN_MOTION    = 14.82058191
ECCENTRICITY   = .001599
INCLINATION    = 82.5220
RA_OF_ASC_NODE = 293.6303
ARG_OF_PERICENTER = 345.9527
MEAN_ANOMALY   = 14.1240

EPHEMERIS_TYPE = 0
CLASSIFICATION_TYPE = U
NORAD_CAT_ID   = 20511
ELEMENT_SET_NO = 999
REV_AT_EPOCH   = 91140
BSTAR          = .64085389E-4
MEAN_MOTION_DOT = .533E-5
MEAN_MOTION_DDOT = 0

CCSDS_OMM_VERS = 2.0
CREATION_DATE  = 
ORIGINATOR     = 

OBJECT_NAME    = HST
OBJECT_ID      = 1990-037B
CENTER_NAME    = EARTH
REF_FRAME      = TEME
TIME_SYSTEM    = UTC
MEAN_ELEMENT_THEORY = SGP/SGP4

EPOCH          = 2025-12-24T05:18:14.781024
MEAN_MOTION    = 15.28190915
ECCENTRICITY   = .00023702
INCLINATION    = 28.4657
RA_OF_ASC_NODE = 194.3324
ARG_OF_PERICENTER = 14.2616
MEAN_ANOMALY   = 345.8046

EPHEMERIS_TYPE = 0
CLASSIFICATION_TYPE = U
NORAD_CAT_ID   = 20580
ELEMENT_SET_NO = 999
REV_AT_EPOCH   = 76175
BSTAR          = .22374769E-3
MEAN_MOTION_DOT = .6551E-4
MEAN_MOTION_DDOT = 0

CCSDS_OMM_VERS = 2.0
CREATION_DATE  = 
ORIGINATOR     = 

OBJECT_NAME    = SL-16 R/B
OBJECT_ID      = 1990-046B
CENTER_NAME    = EARTH
REF_FRAME      = TEME
TIME_SYSTEM    = UTC
MEAN_ELEMENT_THEORY = SGP/SGP4

EPOCH          = 2025-12-24T06:27:02.561760
MEAN_MOTION    = 14.14997701
ECCENTRICITY   = .0012214
INCLINATION    = 70.9992
RA_OF_ASC_NODE = 96.3103
ARG_OF_PERICENTER = 53.2899
MEAN_ANOMALY   = 306.9344

EPHEMERIS_TYPE = 0
CLASSIFICATION_TYPE = U
NORAD_CAT_ID   = 20625
ELEMENT_SET_NO = 999
REV_AT_EPOCH   = 83772
BSTAR          = -.61144105E-4
MEAN_MOTION_DOT = -.166E-5
MEAN_MOTION_DDOT = 0

CCSDS_OMM_VERS = 2.0
CREATION_DATE  = 
ORIGINATOR     = 

OBJECT_NAME    = COSMOS 2084
OBJECT_ID      = 1990-055A
CENTER_NAME    = EARTH
REF_FRAME      = TEME
TIME_SYSTEM    = UTC
MEAN_ELEMENT_THEORY = SGP/SGP4

EPOCH          = 2025-12-24T01:29:43.825056
MEAN_MOTION    = 15.05082546
ECCENTRICITY   = .00299002
INCLINATION    = 62.7887
RA_OF_ASC_NODE = 233.4117
ARG_OF_PERICENTER = 176.1883
MEAN_ANOMALY   = 183.9451

EPHEMERIS_TYPE = 0
CLASSIFICATION_TYPE = U
NORAD_CAT_ID   = 20663
ELEMENT_SET_NO = 999
REV_AT_EPOCH   = 92493
BSTAR          = .21335751E-3
MEAN_MOTION_DOT = .2873E-4
MEAN_MOTION_DDOT = 0

CCSDS_OMM_VERS = 2.0
CREATION_DATE  = 
ORIGINATOR     = 

OBJECT_NAME    = SL-6 R/B(2)
OBJECT_ID      = 1990-055D
CENTER_NAME    = EARTH
REF_FRAME      = TEME
TIME_SYSTEM    = UTC
MEAN_ELEMENT_THEORY = SGP/SGP4

EPOCH          = 2025-12-22T19:30:38.860992
MEAN_MOTION    = 15.03117285
ECCENTRICITY   = .00138334
INCLINATION    = 62.7811
RA_OF_ASC_NODE = 155.1870
ARG_OF_PERICENTER = 315.6810
MEAN_ANOMALY   = 44.3181

EPHEMERIS_TYPE = 0
CLASSIFICATION_TYPE = U
NORAD_CAT_ID   = 20666
ELEMENT_SET_NO = 999
REV_AT_EPOCH   = 92663
BSTAR          = .1531148E-3
MEAN_MOTION_DOT = .1882E-4
MEAN_MOTION_DDOT = 0

CCSDS_OMM_VERS = 2.0
CREATION_DATE  = 
ORIGINATOR     = 

OBJECT_NAME    = SL-8 R/B
OBJECT_ID      = 1990-078B
CENTER_NAME    = EARTH
REF_FRAME      = TEME
TIME_SYSTEM    = UTC
MEAN_ELEMENT_THEORY = SGP/SGP4

EPOCH          = 2025-12-24T05:51:52.478496
MEAN_MOTION    = 14.86345124
ECCENTRICITY   = .0370282
INCLINATION    = 82.9062
RA_OF_ASC_NODE = 319.0087
ARG_OF_PERICENTER = 267.1690
MEAN_ANOMALY   = 88.7105

EPHEMERIS_TYPE = 0
CLASSIFICATION_TYPE = U
NORAD_CAT_ID   = 20775
ELEMENT_SET_NO = 999
REV_AT_EPOCH   = 79808
BSTAR          = .52889685E-3
MEAN_MOTION_DOT = .17131E-3
MEAN_MOTION_DDOT = 0

CCSDS_OMM_VERS = 2.0
CREATION_DATE  = 
ORIGINATOR     = 

OBJECT_NAME    = SL-8 R/B
OBJECT_ID      = 1991-006B
CENTER_NAME    = EARTH
REF_FRAME      = TEME
TIME_SYSTEM    = UTC
MEAN_ELEMENT_THEORY = SGP/SGP4

EPOCH          = 2025-12-24T02:28:17.757120
MEAN_MOTION    = 13.77492306
ECCENTRICITY   = .00212397
INCLINATION    = 82.9416
RA_OF_ASC_NODE = 226.2606
ARG_OF_PERICENTER = 246.0344
MEAN_ANOMALY   = 278.3412

EPHEMERIS_TYPE = 0
CLASSIFICATION_TYPE = U
NORAD_CAT_ID   = 21088
ELEMENT_SET_NO = 999
REV_AT_EPOCH   = 75366
BSTAR          = .10662399E-3
MEAN_MOTION_DOT = .121E-5
MEAN_MOTION_DDOT = 0

CCSDS_OMM_VERS = 2.0
CREATION_DATE  = 
ORIGINATOR     = 

OBJECT_NAME    = OKEAN-3
OBJECT_ID      = 1991-039A
CENTER_NAME    = EARTH
REF_FRAME      = TEME
TIME_SYSTEM    = UTC
MEAN_ELEMENT_THEORY = SGP/SGP4

EPOCH          = 2025-12-24T04:34:52.577184
MEAN_MOTION    = 15.04188542
ECCENTRICITY   = .00136226
INCLINATION    = 82.5165
RA_OF_ASC_NODE = 49.9635
ARG_OF_PERICENTER = 221.9984
MEAN_ANOMALY   = 138.0199

EPHEMERIS_TYPE = 0
CLASSIFICATION_TYPE = U
NORAD_CAT_ID   = 21397
ELEMENT_SET_NO = 999
REV_AT_EPOCH   = 85368
BSTAR          = .20365151E-3
MEAN_MOTION_DOT = .2859E-4
MEAN_MOTION_DDOT = 0

CCSDS_OMM_VERS = 2.0
CREATION_DATE  = 
ORIGINATOR     = 

OBJECT_NAME    = COSMOS 2151
OBJECT_ID      = 1991-042A
CENTER_NAME    = EARTH
REF_FRAME      = TEME
TIME_SYSTEM    = UTC
MEAN_ELEMENT_THEORY = SGP/SGP4

EPOCH          = 2025-12-24T03:59:03.322752
MEAN_MOTION    = 14.99727551
ECCENTRICITY   = .00115904
INCLINATION    = 82.4965
RA_OF_ASC_NODE = 156.4915
ARG_OF_PERICENTER = 319.7400
MEAN_ANOMALY   = 40.2965

EPHEMERIS_TYPE = 0
CLASSIFICATION_TYPE = U
NORAD_CAT_ID   = 21422
ELEMENT_SET_NO = 999
REV_AT_EPOCH   = 85187
BSTAR          = .15091739E-3
MEAN_MOTION_DOT = .1891E-4
MEAN_MOTION_DDOT = 0

