DELTA 2 R/B(1)          
1 20453U 90008B   25358.24775380  .00051132  00000+0  79227-3 0  9991
2 20453  35.6078 306.1695 0110363 282.8208  76.0214 15.46151182914412
COSMOS 2058             
1 20465U 90010A   25358.08566803  .00005264  00000+0  31702-3 0  9998
2 20465  82.4708 121.8713 0009370 229.1662 130.8756 15.10578570930829
SL-14 R/B               
1 20466U 90010B   25358.21211398  .00000473  00000+0  54545-4 0  9998
2 20466  82.5023 338.2717 0019624 184.0181 176.0880 14.83481561917295
SL-14 R/B               
1 20511U 90018B   25358.22482815  .00000533  00000+0  64085-4 0  9999
2 20511  82.5220 293.6303 0015990 345.9527  14.1240 14.82058191911401
HST                     
1 20580U 90037B   25358.22100441  .00006551  00000+0  22375-3 0  9999
2 20580  28.4657 194.3324 0002370  14.2616 345.8046 15.28190915761754
SL-16 R/B               
1 20625U 90046B   25358.26877965 -.00000166  00000+0 -61144-4 0  9991
2 20625  70.9992  96.3103 0012214  53.2899 306.9344 14.14997701837720
COSMOS 2084             
1 20663U 90055A   25358.06231279  .00002873  00000+0  21336-3 0  9996
2 20663  62.7887 233.4117 0029900 176.1883 183.9451 15.05082546924936
SL-6 R/B(2)             
1 20666U 90055D   25356.81294978  .00001882  00000+0  15311-3 0  9990
2 20666  62.7811 155.1870 0013833 315.6810  44.3181 15.03117285926636
SL-8 R/B                
1 20775U 90078B   25358.24435739  .00017131  00000+0  52890-3 0  9994
2 20775  82.9062 319.0087 0370282 267.1690  88.7105 14.86345124798080
SL-8 R/B                
1 21088U 91006B   25358.10298330  .00000121  00000+0  10662-3 0  9995
2 21088  82.9416 226.2606 0021239 246.0344 278.3412 13.77492306753661
OKEAN-3                 
1 21397U 91039A   25358.19088631  .00002859  00000+0  20365-3 0  9995
2 21397  82.5165  49.9635 0013622 221.9984 138.0199 15.04188542853685
COSMOS 2151             
1 21422U 91042A   25358.16601068  .00001891  00000+0  15092-3 0  9996
2 21422  82.4965 156.4915 0011590 319.7400  40.2965 14.99727551851873
